[{"OBJECT_NAME":"STARLINK-11080 [DTC]","OBJECT_ID":"2024-152H","EPOCH":"2026-03-09T10:03:23.851584","MEAN_MOTION":15.697103,"ECCENTRICITY":0.00012488,"INCLINATION":53.1584,"RA_OF_ASC_NODE":117.5107,"ARG_OF_PERICENTER":85.1052,"MEAN_ANOMALY":275.0108,"EPHEMERIS_TYPE":0,"CLASSIFICATION_TYPE":"U","NORAD_CAT_ID":60727,"ELEMENT_SET_NO":999,"REV_AT_EPOCH":8892,"BSTAR":1.807743e-5,"MEAN_MOTION_DOT":1.602e-5,"MEAN_MOTION_DDOT":0},{"OBJECT_NAME":"CZ-3B R\/B","OBJECT_ID":"2025-242B","EPOCH":"2026-03-09T23:21:03.481344","MEAN_MOTION":15.5164095,"ECCENTRICITY":0.00825533,"INCLINATION":97.4288,"RA_OF_ASC_NODE":149.5204,"ARG_OF_PERICENTER":271.8106,"MEAN_ANOMALY":87.3693,"EPHEMERIS_TYPE":0,"CLASSIFICATION_TYPE":"U","NORAD_CAT_ID":66176,"ELEMENT_SET_NO":999,"REV_AT_EPOCH":2083,"BSTAR":0.00075343926,"MEAN_MOTION_DOT":0.00051826,"MEAN_MOTION_DDOT":0}]
